ONEWEB-0229             
1 48779U 21045N   25139.84536881  .00000223  00000+0  55744-3 0  9994
2 48779  87.9048 337.5952 0001615  87.2090 272.9225 13.15548354193827
ONEWEB-0228             
1 48780U 21045P   25139.49848156 -.00000105  00000+0 -31352-3 0  9998
2 48780  87.9045 337.6400 0001628  90.6384 269.4933 13.15549968192562
ONEWEB-0232             
1 48781U 21045Q   25139.54905856  .00000150  00000+0  36564-3 0  9994
2 48781  87.9042 337.6277 0001733  88.7786 271.3543 13.15550085192890
ONEWEB-0231             
1 48782U 21045R   25139.83110789  .00000133  00000+0  32045-3 0  9991
2 48782  87.9034 337.6287 0001517  92.4868 267.6436 13.15548814193769
ONEWEB-0234             
1 48783U 21045S   25139.77486729  .00000185  00000+0  45716-3 0  9991
2 48783  87.9046 337.5944 0002989  96.3633 263.7838 13.15553780193883
ONEWEB-0238             
1 48784U 21045T   25140.10919344 -.00000112  00000+0 -33088-3 0  9996
2 48784  87.9034 337.5429 0001942  89.5644 270.5709 13.15548592193825
ONEWEB-0240             
1 48785U 21045U   25139.58629178 -.00000105  00000+0 -31403-3 0  9991
2 48785  87.9047 337.6159 0001693 100.9252 259.2069 13.15548579192655
ONEWEB-0246             
1 48786U 21045V   25139.80891525 -.00000128  00000+0 -37384-3 0  9993
2 48786  87.9048 337.5812 0001622  86.6492 273.4824 13.15549337193673
